{"type": "FeatureCollection", "features": [{"type": "Feature", "properties": {"norad_id": 24946, "name": "IRIDIUM 33", "group": "iridium-33-debris", "lat": 59.262196283699446, "lon": 75.53013496241799, "alt_km": 773.4922624616665, "timestamp": "2025-12-09T20:37:09.673682+00:00", "meta": {"OBJECT_NAME": "IRIDIUM 33", "OBJECT_ID": "1997-051C", "EPOCH": "2025-12-09T06:57:17.894016", "MEAN_MOTION": 14.35033739, "ECCENTRICITY": 0.0006648, "INCLINATION": 86.387, "RA_OF_ASC_NODE": 69.6697, "ARG_OF_PERICENTER": 213.1217, "MEAN_ANOMALY": 146.9564, "EPHEMERIS_TYPE": 0, "CLASSIFICATION_TYPE": "U", "NORAD_CAT_ID": 24946, "ELEMENT_SET_NO": 999, "REV_AT_EPOCH": 47785, "BSTAR": 0.00021762, "MEAN_MOTION_DOT": 6.39e-06, "MEAN_MOTION_DDOT": 0}, "tle": {"line1": "1 24946U 97051C   25343.28979044  .00000639  00000+0  21762-3 0  9995", "line2": "2 24946  86.3870  69.6697 0006648 213.1217 146.9564 14.35033739477857"}}, "geometry": {"type": "Point", "coordinates": [75.53013496241799, 59.262196283699446]}}, {"type": "Feature", "properties": {"norad_id": 33773, "name": "IRIDIUM 33 DEB", "group": "iridium-33-debris", "lat": -68.20742099379314, "lon": 52.75455887460359, "alt_km": 761.452853711593, "timestamp": "2025-12-09T20:37:09.673727+00:00", "meta": {"OBJECT_NAME": "IRIDIUM 33 DEB", "OBJECT_ID": "1997-051L", "EPOCH": "2025-12-09T10:57:11.199168", "MEAN_MOTION": 14.43246661, "ECCENTRICITY": 0.00121649, "INCLINATION": 86.4015, "RA_OF_ASC_NODE": 61.9808, "ARG_OF_PERICENTER": 156.1113, "MEAN_ANOMALY": 204.0655, "EPHEMERIS_TYPE": 0, "CLASSIFICATION_TYPE": "U", "NORAD_CAT_ID": 33773, "ELEMENT_SET_NO": 999, "REV_AT_EPOCH": 88300, "BSTAR": 0.00055763751, "MEAN_MOTION_DOT": 1.897e-05, "MEAN_MOTION_DDOT": 0}, "tle": {"line1": "1 33773U 97051L   25343.45637962  .00001897  00000+0  55764-3 0  9998", "line2": "2 33773  86.4015  61.9808 0012164 156.1113 204.0655 14.43246661883001"}}, "geometry": {"type": "Point", "coordinates": [52.75455887460359, -68.20742099379314]}}, {"type": "Feature", "properties": {"norad_id": 33775, "name": "IRIDIUM 33 DEB", "group": "iridium-33-debris", "lat": 33.189409100490074, "lon": 53.16722035487691, "alt_km": 758.1208700629659, "timestamp": "2025-12-09T20:37:09.673745+00:00", "meta": {"OBJECT_NAME": "IRIDIUM 33 DEB", "OBJECT_ID": "1997-051N", "EPOCH": "2025-12-09T14:26:01.423104", "MEAN_MOTION": 14.41458738, "ECCENTRICITY": 0.00139444, "INCLINATION": 86.364, "RA_OF_ASC_NODE": 50.8934, "ARG_OF_PERICENTER": 164.314, "MEAN_ANOMALY": 332.5697, "EPHEMERIS_TYPE": 0, "CLASSIFICATION_TYPE": "U", "NORAD_CAT_ID": 33775, "ELEMENT_SET_NO": 999, "REV_AT_EPOCH": 88095, "BSTAR": 0.00057547968, "MEAN_MOTION_DOT": 1.888e-05, "MEAN_MOTION_DDOT": 0}, "tle": {"line1": "1 33775U 97051N   25343.60140536  .00001888  00000+0  57548-3 0  9995", "line2": "2 33775  86.3640  50.8934 0013944 164.3140 332.5697 14.41458738880953"}}, "geometry": {"type": "Point", "coordinates": [53.16722035487691, 33.189409100490074]}}, {"type": "Feature", "properties": {"norad_id": 33776, "name": "IRIDIUM 33 DEB", "group": "iridium-33-debris", "lat": -63.023568611323775, "lon": 74.88833200569091, "alt_km": 772.8036934417214, "timestamp": "2025-12-09T20:37:09.673758+00:00", "meta": {"OBJECT_NAME": "IRIDIUM 33 DEB", "OBJECT_ID": "1997-051P", "EPOCH": "2025-12-09T12:36:53.784000", "MEAN_MOTION": 14.38227239, "ECCENTRICITY": 0.00139576, "INCLINATION": 86.4038, "RA_OF_ASC_NODE": 82.1255, "ARG_OF_PERICENTER": 201.1241, "MEAN_ANOMALY": 169.7991, "EPHEMERIS_TYPE": 0, "CLASSIFICATION_TYPE": "U", "NORAD_CAT_ID": 33776, "ELEMENT_SET_NO": 999, "REV_AT_EPOCH": 88036, "BSTAR": 0.00059846914, "MEAN_MOTION_DOT": 1.839e-05, "MEAN_MOTION_DDOT": 0}, "tle": {"line1": "1 33776U 97051P   25343.52562250  .00001839  00000+0  59847-3 0  9998", "line2": "2 33776  86.4038  82.1255 0013957 201.1241 169.7991 14.38227239880364"}}, "geometry": {"type": "Point", "coordinates": [74.88833200569091, -63.023568611323775]}}, {"type": "Feature", "properties": {"norad_id": 33777, "name": "IRIDIUM 33 DEB", "group": "iridium-33-debris", "lat": -83.44189102286055, "lon": -110.11278868207872, "alt_km": 711.3431554686058, "timestamp": "2025-12-09T20:37:09.673772+00:00", "meta": {"OBJECT_NAME": "IRIDIUM 33 DEB", "OBJECT_ID": "1997-051Q", "EPOCH": "2025-12-09T09:30:28.800288", "MEAN_MOTION": 14.5557564, "ECCENTRICITY": 0.00050654, "INCLINATION": 86.3783, "RA_OF_ASC_NODE": 36.6577, "ARG_OF_PERICENTER": 264.7925, "MEAN_ANOMALY": 95.2705, "EPHEMERIS_TYPE": 0, "CLASSIFICATION_TYPE": "U", "NORAD_CAT_ID": 33777, "ELEMENT_SET_NO": 999, "REV_AT_EPOCH": 88485, "BSTAR": 0.0013749308, "MEAN_MOTION_DOT": 6.014e-05, "MEAN_MOTION_DDOT": 0}, "tle": {"line1": "1 33777U 97051Q   25343.39616667  .00006014  00000+0  13749-2 0  9996", "line2": "2 33777  86.3783  36.6577 0005065 264.7925  95.2705 14.55575640884852"}}, "geometry": {"type": "Point", "coordinates": [-110.11278868207872, -83.44189102286055]}}, {"type": "Feature", "properties": {"norad_id": 33850, "name": "IRIDIUM 33 DEB", "group": "iridium-33-debris", "lat": 7.189868372853686, "lon": 31.88074958613471, "alt_km": 761.5965077118381, "timestamp": "2025-12-09T20:37:09.673785+00:00", "meta": {"OBJECT_NAME": "IRIDIUM 33 DEB", "OBJECT_ID": "1997-051T", "EPOCH": "2025-12-09T12:49:17.887584", "MEAN_MOTION": 14.42137321, "ECCENTRICITY": 0.0011876, "INCLINATION": 86.342, "RA_OF_ASC_NODE": 31.558, "ARG_OF_PERICENTER": 170.9459, "MEAN_ANOMALY": 310.6825, "EPHEMERIS_TYPE": 0, "CLASSIFICATION_TYPE": "U", "NORAD_CAT_ID": 33850, "ELEMENT_SET_NO": 999, "REV_AT_EPOCH": 88106, "BSTAR": 0.00056175323, "MEAN_MOTION_DOT": 1.868e-05, "MEAN_MOTION_DDOT": 0}, "tle": {"line1": "1 33850U 97051T   25343.53423481  .00001868  00000+0  56175-3 0  9997", "line2": "2 33850  86.3420  31.5580 0011876 170.9459 310.6825 14.42137321881060"}}, "geometry": {"type": "Point", "coordinates": [31.88074958613471, 7.189868372853686]}}, {"type": "Feature", "properties": {"norad_id": 33853, "name": "IRIDIUM 33 DEB", "group": "iridium-33-debris", "lat": 64.86872055590783, "lon": 162.49577162187958, "alt_km": 985.749386810221, "timestamp": "2025-12-09T20:37:09.673797+00:00", "meta": {"OBJECT_NAME": "IRIDIUM 33 DEB", "OBJECT_ID": "1997-051W", "EPOCH": "2025-12-09T12:13:24.016800", "MEAN_MOTION": 13.99031995, "ECCENTRICITY": 0.02069783, "INCLINATION": 85.9998, "RA_OF_ASC_NODE": 351.2277, "ARG_OF_PERICENTER": 245.8173, "MEAN_ANOMALY": 269.932, "EPHEMERIS_TYPE": 0, "CLASSIFICATION_TYPE": "U", "NORAD_CAT_ID": 33853, "ELEMENT_SET_NO": 999, "REV_AT_EPOCH": 85300, "BSTAR": 0.0029960339, "MEAN_MOTION_DOT": 5.22e-05, "MEAN_MOTION_DDOT": 0}, "tle": {"line1": "1 33853U 97051W   25343.50930575  .00005220  00000+0  29960-2 0  9991", "line2": "2 33853  85.9998 351.2277 0206978 245.8173 269.9320 13.99031995853007"}}, "geometry": {"type": "Point", "coordinates": [162.49577162187958, 64.86872055590783]}}, {"type": "Feature", "properties": {"norad_id": 33860, "name": "IRIDIUM 33 DEB", "group": "iridium-33-debris", "lat": 40.18577234918857, "lon": 31.57520205609925, "alt_km": 661.9400230100036, "timestamp": "2025-12-09T20:37:09.673809+00:00", "meta": {"OBJECT_NAME": "IRIDIUM 33 DEB", "OBJECT_ID": "1997-051AD", "EPOCH": "2025-12-09T02:41:58.809408", "MEAN_MOTION": 14.67293225, "ECCENTRICITY": 0.00079354, "INCLINATION": 86.3836, "RA_OF_ASC_NODE": 28.8434, "ARG_OF_PERICENTER": 10.3707, "MEAN_ANOMALY": 48.4876, "EPHEMERIS_TYPE": 0, "CLASSIFICATION_TYPE": "U", "NORAD_CAT_ID": 33860, "ELEMENT_SET_NO": 999, "REV_AT_EPOCH": 88669, "BSTAR": 0.001421155, "MEAN_MOTION_DOT": 8.042e-05, "MEAN_MOTION_DDOT": 0}, "tle": {"line1": "1 33860U 97051AD  25343.11248622  .00008042  00000+0  14212-2 0  9990", "line2": "2 33860  86.3836  28.8434 0007935  10.3707  48.4876 14.67293225886692"}}, "geometry": {"type": "Point", "coordinates": [31.57520205609925, 40.18577234918857]}}, {"type": "Feature", "properties": {"norad_id": 33862, "name": "IRIDIUM 33 DEB", "group": "iridium-33-debris", "lat": 53.38599187187635, "lon": 43.648854729873385, "alt_km": 623.7974286888666, "timestamp": "2025-12-09T20:37:09.673820+00:00", "meta": {"OBJECT_NAME": "IRIDIUM 33 DEB", "OBJECT_ID": "1997-051AF", "EPOCH": "2025-12-09T10:37:00.405120", "MEAN_MOTION": 14.69387938, "ECCENTRICITY": 0.00537298, "INCLINATION": 86.4087, "RA_OF_ASC_NODE": 38.984, "ARG_OF_PERICENTER": 80.2159, "MEAN_ANOMALY": 290.4324, "EPHEMERIS_TYPE": 0, "CLASSIFICATION_TYPE": "U", "NORAD_CAT_ID": 33862, "ELEMENT_SET_NO": 999, "REV_AT_EPOCH": 88775, "BSTAR": 0.0018727165, "MEAN_MOTION_DOT": 0.00011351, "MEAN_MOTION_DDOT": 0}, "tle": {"line1": "1 33862U 97051AF  25343.44236580  .00011351  00000+0  18727-2 0  9990", "line2": "2 33862  86.4087  38.9840 0053729  80.2159 290.4324 14.69387938887757"}}, "geometry": {"type": "Point", "coordinates": [43.648854729873385, 53.38599187187635]}}, {"type": "Feature", "properties": {"norad_id": 33866, "name": "IRIDIUM 33 DEB", "group": "iridium-33-debris", "lat": -37.45815431219138, "lon": -82.90403918254586, "alt_km": 757.4721137336328, "timestamp": "2025-12-09T20:37:09.673832+00:00", "meta": {"OBJECT_NAME": "IRIDIUM 33 DEB", "OBJECT_ID": "1997-051AK", "EPOCH": "2025-12-09T14:37:40.342944", "MEAN_MOTION": 14.25258723, "ECCENTRICITY": 0.01142216, "INCLINATION": 86.3001, "RA_OF_ASC_NODE": 94.3599, "ARG_OF_PERICENTER": 171.3653, "MEAN_ANOMALY": 205.0241, "EPHEMERIS_TYPE": 0, "CLASSIFICATION_TYPE": "U", "NORAD_CAT_ID": 33866, "ELEMENT_SET_NO": 999, "REV_AT_EPOCH": 86766, "BSTAR": 0.0011962752, "MEAN_MOTION_DOT": 3.03e-05, "MEAN_MOTION_DDOT": 0}, "tle": {"line1": "1 33866U 97051AK  25343.60949471  .00003030  00000+0  11963-2 0  9992", "line2": "2 33866  86.3001  94.3599 0114221 171.3653 205.0241 14.25258723867668"}}, "geometry": {"type": "Point", "coordinates": [-82.90403918254586, -37.45815431219138]}}]}